XRISM                   
1 57800U 23137A   23330.78724054  .00007259  00000+0  58224-3 0  9990
2 57800  31.0030 224.7208 0010333 352.9216   7.1272 14.98732052 12128
